{
  "type": "FeatureCollection",
  "name": "rivers-chengdu-sample",
  "crs": {
    "type": "name",
    "properties": {
      "name": "urn:ogc:def:crs:OGC:1.3:CRS84"
    }
  },
  "metadata": {
    "description_zh": "成都周边示意河网（合成简化线，非精确测绘）。用于离线演示空间过滤与高亮。",
    "center": [
      104.06,
      30.67
    ],
    "license": "CC0 / synthetic demo data for this app"
  },
  "features": [
    {
      "type": "Feature",
      "properties": {
        "name": "岷江（示意）",
        "id": "r1",
        "note": "synthetic_sample"
      },
      "geometry": {
        "type": "LineString",
        "coordinates": [
          [
            103.85,
            31.05
          ],
          [
            103.92,
            30.95
          ],
          [
            103.98,
            30.85
          ],
          [
            104.02,
            30.75
          ],
          [
            104.05,
            30.68
          ],
          [
            104.08,
            30.58
          ],
          [
            104.12,
            30.48
          ],
          [
            104.18,
            30.35
          ]
        ]
      }
    },
    {
      "type": "Feature",
      "properties": {
        "name": "锦江（示意）",
        "id": "r2",
        "note": "synthetic_sample"
      },
      "geometry": {
        "type": "LineString",
        "coordinates": [
          [
            104.02,
            30.75
          ],
          [
            104.04,
            30.7
          ],
          [
            104.06,
            30.66
          ],
          [
            104.08,
            30.62
          ],
          [
            104.1,
            30.58
          ],
          [
            104.12,
            30.52
          ],
          [
            104.14,
            30.45
          ]
        ]
      }
    },
    {
      "type": "Feature",
      "properties": {
        "name": "府河（示意）",
        "id": "r3",
        "note": "synthetic_sample"
      },
      "geometry": {
        "type": "LineString",
        "coordinates": [
          [
            104.0,
            30.78
          ],
          [
            104.03,
            30.74
          ],
          [
            104.05,
            30.7
          ],
          [
            104.06,
            30.66
          ],
          [
            104.07,
            30.62
          ],
          [
            104.08,
            30.58
          ]
        ]
      }
    },
    {
      "type": "Feature",
      "properties": {
        "name": "南河（示意）",
        "id": "r4",
        "note": "synthetic_sample"
      },
      "geometry": {
        "type": "LineString",
        "coordinates": [
          [
            104.04,
            30.64
          ],
          [
            104.06,
            30.63
          ],
          [
            104.08,
            30.62
          ],
          [
            104.1,
            30.61
          ],
          [
            104.13,
            30.6
          ],
          [
            104.16,
            30.58
          ]
        ]
      }
    },
    {
      "type": "Feature",
      "properties": {
        "name": "沙河（示意）",
        "id": "r5",
        "note": "synthetic_sample"
      },
      "geometry": {
        "type": "LineString",
        "coordinates": [
          [
            104.1,
            30.72
          ],
          [
            104.11,
            30.68
          ],
          [
            104.12,
            30.64
          ],
          [
            104.13,
            30.6
          ],
          [
            104.14,
            30.55
          ],
          [
            104.15,
            30.5
          ]
        ]
      }
    },
    {
      "type": "Feature",
      "properties": {
        "name": "清水河（示意）",
        "id": "r6",
        "note": "synthetic_sample"
      },
      "geometry": {
        "type": "LineString",
        "coordinates": [
          [
            103.95,
            30.7
          ],
          [
            103.98,
            30.68
          ],
          [
            104.01,
            30.66
          ],
          [
            104.04,
            30.64
          ],
          [
            104.06,
            30.62
          ]
        ]
      }
    },
    {
      "type": "Feature",
      "properties": {
        "name": "沱江（示意）",
        "id": "r7",
        "note": "synthetic_sample"
      },
      "geometry": {
        "type": "LineString",
        "coordinates": [
          [
            104.35,
            31.1
          ],
          [
            104.38,
            30.95
          ],
          [
            104.4,
            30.8
          ],
          [
            104.42,
            30.65
          ],
          [
            104.45,
            30.5
          ],
          [
            104.48,
            30.35
          ]
        ]
      }
    },
    {
      "type": "Feature",
      "properties": {
        "name": "毗河（示意）",
        "id": "r8",
        "note": "synthetic_sample"
      },
      "geometry": {
        "type": "LineString",
        "coordinates": [
          [
            104.15,
            30.78
          ],
          [
            104.2,
            30.76
          ],
          [
            104.25,
            30.74
          ],
          [
            104.3,
            30.72
          ],
          [
            104.35,
            30.7
          ],
          [
            104.4,
            30.68
          ]
        ]
      }
    },
    {
      "type": "Feature",
      "properties": {
        "name": "金马河（示意）",
        "id": "r9",
        "note": "synthetic_sample"
      },
      "geometry": {
        "type": "LineString",
        "coordinates": [
          [
            103.75,
            30.85
          ],
          [
            103.8,
            30.78
          ],
          [
            103.85,
            30.72
          ],
          [
            103.9,
            30.66
          ],
          [
            103.95,
            30.6
          ],
          [
            104.0,
            30.55
          ]
        ]
      }
    },
    {
      "type": "Feature",
      "properties": {
        "name": "江安河（示意）",
        "id": "r10",
        "note": "synthetic_sample"
      },
      "geometry": {
        "type": "LineString",
        "coordinates": [
          [
            103.92,
            30.72
          ],
          [
            103.96,
            30.68
          ],
          [
            104.0,
            30.64
          ],
          [
            104.03,
            30.6
          ],
          [
            104.06,
            30.56
          ]
        ]
      }
    },
    {
      "type": "Feature",
      "properties": {
        "name": "东风渠（示意）",
        "id": "r11",
        "note": "synthetic_sample"
      },
      "geometry": {
        "type": "LineString",
        "coordinates": [
          [
            104.12,
            30.7
          ],
          [
            104.16,
            30.68
          ],
          [
            104.2,
            30.66
          ],
          [
            104.24,
            30.64
          ],
          [
            104.28,
            30.62
          ]
        ]
      }
    },
    {
      "type": "Feature",
      "properties": {
        "name": "西河（示意·郫都）",
        "id": "r12",
        "note": "synthetic_sample"
      },
      "geometry": {
        "type": "LineString",
        "coordinates": [
          [
            103.88,
            30.85
          ],
          [
            103.9,
            30.82
          ],
          [
            103.92,
            30.78
          ],
          [
            103.94,
            30.74
          ],
          [
            103.96,
            30.7
          ]
        ]
      }
    },
    {
      "type": "Feature",
      "properties": {
        "name": "青衣江（示意·远端）",
        "id": "r_far1",
        "note": "synthetic_sample"
      },
      "geometry": {
        "type": "LineString",
        "coordinates": [
          [
            103.45,
            29.95
          ],
          [
            103.5,
            29.9
          ],
          [
            103.55,
            29.85
          ],
          [
            103.6,
            29.8
          ]
        ]
      }
    },
    {
      "type": "Feature",
      "properties": {
        "name": "涪江（示意·远端）",
        "id": "r_far2",
        "note": "synthetic_sample"
      },
      "geometry": {
        "type": "LineString",
        "coordinates": [
          [
            104.75,
            31.45
          ],
          [
            104.78,
            31.35
          ],
          [
            104.82,
            31.25
          ],
          [
            104.85,
            31.15
          ]
        ]
      }
    }
  ]
}